[{"OBJECT_NAME":"STARLINK-3617","OBJECT_ID":"2022-017N","EPOCH":"2026-03-09T23:22:44.837184","MEAN_MOTION":15.0883174,"ECCENTRICITY":0.00015283,"INCLINATION":53.2205,"RA_OF_ASC_NODE":337.8367,"ARG_OF_PERICENTER":100.659,"MEAN_ANOMALY":259.4575,"EPHEMERIS_TYPE":0,"CLASSIFICATION_TYPE":"U","NORAD_CAT_ID":51780,"ELEMENT_SET_NO":999,"REV_AT_EPOCH":22246,"BSTAR":3.9469586e-5,"MEAN_MOTION_DOT":3.4e-6,"MEAN_MOTION_DDOT":0},{"OBJECT_NAME":"CZ-6A DEB","OBJECT_ID":"2022-151NQ","EPOCH":"2026-03-09T17:05:31.837920","MEAN_MOTION":14.96919824,"ECCENTRICITY":0.00482154,"INCLINATION":98.6429,"RA_OF_ASC_NODE":147.6002,"ARG_OF_PERICENTER":185.0484,"MEAN_ANOMALY":175.0256,"EPHEMERIS_TYPE":0,"CLASSIFICATION_TYPE":"U","NORAD_CAT_ID":54614,"ELEMENT_SET_NO":999,"REV_AT_EPOCH":10489,"BSTAR":0.0050921909,"MEAN_MOTION_DOT":0.00060273,"MEAN_MOTION_DDOT":0}]
